#aV2008  2  4  0  0   .00000000      96 DD+AD WGS84 FIT  NGA
## 1465  86400.00000000   900.00000000 54500  .0000000000000
+   31     1  2  3  4  5  6  8  9 10 11 12 13 14 15 16 17 18
+         19 20 21 22 23 24 25 26 27 28 29 30 31 32  0  0  0
+          0  0  0  0  0  0  0  0  0  0  0  0  0  0  0  0  0
+          0  0  0  0  0  0  0  0  0  0  0  0  0  0  0  0  0
+          0  0  0  0  0  0  0  0  0  0  0  0  0  0  0  0  0
++         0  0  0  0  0  0  0  0  0  0  0  0  0  0  0  0  0
++         0  0  0  0  0  0  0  0  0  0  0  0  0  0  0  0  0
++         0  0  0  0  0  0  0  0  0  0  0  0  0  0  0  0  0
++         0  0  0  0  0  0  0  0  0  0  0  0  0  0  0  0  0
++         0  0  0  0  0  0  0  0  0  0  0  0  0  0  0  0  0
%c cc cc ccc ccc cccc cccc cccc cccc ccccc ccccc ccccc ccccc
%c cc cc ccc ccc cccc cccc cccc cccc ccccc ccccc ccccc ccccc
%f  0.0000000  0.000000000  0.00000000000  0.000000000000000
%f  0.0000000  0.000000000  0.00000000000  0.000000000000000
%i    0    0    0    0      0      0      0      0         0
%i    0    0    0    0      0      0      0      0         0
/*      NGA, ST. LOUIS,MO.                                  
/*   EPHEMERIS COMPUTED FROM  3 DAYS OF DATA                
/* CCCCCCCCCCCCCCCCCCCCCCCCCCCCCCCCCCCCCCCCCCCCCCCCCCCCCCCCC
/* CCCCCCCCCCCCCCCCCCCCCCCCCCCCCCCCCCCCCCCCCCCCCCCCCCCCCCCCC
*  2008  2  4 19 15   .00000000                                                 
P  1 -17085.049368  17201.218275 -10542.298279    183.560034                    
V  1   4959.621836 -12889.313210 -28542.810551       .023958                    
P  2  17309.770654 -12703.827461  15237.318792    171.749095                    
V  2  20011.120391    765.022967 -22156.896681       .030612                    
P  3 -10536.127211  23988.394300   2756.570452    182.643339                    
V  3  -2708.624192  -5018.074646  30918.824289       .053812                    
P  4  25457.088084  -5957.797260   5591.632706     -3.353656                    
V  4   7362.915388   2430.061161 -30054.962735      -.062494                    
P  5 -15967.729817 -21252.074513  -1978.004367    675.851604                    
V  5   3911.623509   -415.996197 -31111.620782       .153887                    
P  6 -14822.786410  -5750.489339  21464.765375      5.493878                    
V  6  10409.449016 -24841.596986    492.135817       .192875                    
P  8  26728.880532    442.755777   2035.951065   -139.695628                    
V  8  -2591.638730   1848.843798  31764.350366      -.014321                    
P  9  -5819.001170 -14549.584811 -22082.402375    108.942387                    
V  9  26302.423161  -3478.683134  -4605.339457       .018105                    
P 10   3844.590270 -17952.775583  18939.677341   -235.148254                    
V 10  14723.763991  19542.813222  15758.467596      -.135076                    
P 11   9680.860198  14362.452466 -20330.814845     27.040506                    
V 11 -24612.339078   7664.627143  -6022.756161       .000284                    
P 12 -11423.590266 -23321.760864  -5670.608275   -355.811461                    
V 12   6296.771369   4515.310482 -30673.799361      -.008040                    
P 13  11068.427526   9665.855462  22021.080946    238.275818                    
V 13 -13212.284144  24826.255954  -4207.335039       .021889                    
P 14 -17381.840250   7615.817004 -18441.729340   -300.231904                    
V 14   9558.180150 -21600.349012 -17916.826703       .029963                    
P 15   5320.199328 -24837.622998  -7741.010517    -74.635536                    
V 15   6576.012986  -7852.296905  29600.141154      -.022930                    
P 16  -7544.756574  14661.277240  20861.904678    132.705099                    
V 16 -15416.876042 -21376.132187   9653.959664       .002914                    
P 17  17677.315508  -6760.234150 -18550.182419     43.125428                    
V 17  -8836.310368  22004.701758 -16568.406153      -.007310                    
P 18 -18865.210686 -15816.799628 -10238.188694   -206.979123                    
V 18  -4946.933990 -12454.485850  27547.775092       .029785                    
P 19  -6668.950984  24190.298092  -8363.893760     19.507600                    
V 19  -7725.444183   8052.520211  29321.452786       .015061                    
P 20  13256.777554  22783.811953  -3580.120960    121.219796                    
V 20  -5087.684149  -1770.984704 -31029.069530      -.007310                    
P 21 -23884.019633  -6427.580093  10602.174021     72.344556                    
V 21  12902.325591  -3370.362679  26838.677728      -.007471                    
P 22 -17907.556016  -2295.014621 -19337.573416    208.034422                    
V 22 -12120.023455 -21822.872498  13665.766451       .007235                    
P 23   2133.397745  20991.830873  15921.542845    331.619525                    
V 23 -10392.179059  17662.027052 -22030.337950       .028923                    
P 24 -12765.829563 -13234.213739  19234.636065     67.948835                    
V 24  24113.930384  -2347.780997  14804.661087       .030491                    
P 25  18165.726903   9014.149889  17426.077120    507.815531                    
V 25 -20830.360252   5501.226159  19446.343507       .046401                    
P 26   8297.648038 -24304.348146  -5942.034912    174.500740                    
V 26   5116.506682  -5267.859033  31643.174879       .102730                    
P 27  23153.119113   5423.769297  12676.271905    165.555670                    
V 27 -14533.833373   3993.582383  26074.968464       .026750                    
P 28  18584.349468   5552.866509 -17931.308984    -14.691574                    
V 28  11664.917446  20313.446252  17674.321086      -.005834                    
P 29  -9526.877722 -13667.550137  20805.965464    -65.519074                    
V 29  12279.661758 -23108.736902  -9584.636168       .065632                    
P 30 -18211.943700 -18816.208516   4417.820947     62.582183                    
V 30  -1150.944894  -6670.151327 -30744.831681       .015321                    
P 31 -24204.344514   7767.430865   8071.012201     -7.977294                    
V 31 -10101.886227  -1461.755997 -29572.647975      -.014122                    
P 32 -13632.482612   5876.578928 -21562.634623    220.047166                    
V 32 -14039.820310 -24749.338648   2248.065709       .096361                    
EOF
